STARLINK-35208          
1 65854U 25223A   26192.35260266  .00013203  00000+0  40120-3 0  9990
2 65854  53.1582  78.0393 0002026  41.1041 319.0114 15.34400158 43169
STARLINK-35200          
1 65855U 25223B   26192.12522463  .00016929  00000+0  58224-3 0  9998
2 65855  53.1574  80.8706 0001333  98.3182 261.7970 15.30208016 43102
STARLINK-35459          
1 65856U 25223C   26192.28324889  .00013181  00000+0  40055-3 0  9998
2 65856  53.1583  78.3053 0001600 143.0602 217.0511 15.34401577 43153
STARLINK-35489          
1 65857U 25223D   26192.30850108  .00010886  00000+0  33306-3 0  9990
2 65857  53.1574  78.4651 0001162 104.5874 255.5258 15.34379507 43157
STARLINK-35199          
1 65858U 25223E   26192.24107978  .00009402  00000+0  32914-3 0  9990
2 65858  53.1568  80.1697 0001397 111.8561 248.2588 15.30203089 43124
STARLINK-35408          
1 65859U 25223F   26192.31481355  .00013250  00000+0  40297-3 0  9992
2 65859  53.1577  78.5086 0001326  66.3316 293.7825 15.34369679 43156
STARLINK-35303          
1 65860U 25223G   26192.31060391  .00007467  00000+0  23213-3 0  9999
2 65860  53.1581  78.4792 0001552  64.3383 295.7780 15.34368569 43158
STARLINK-35258          
1 65861U 25223H   26192.15929639  .00023673  00000+0  70939-3 0  9995
2 65861  53.1587  78.9608 0001493  55.0871 305.0271 15.34408044 43130
STARLINK-35386          
1 65862U 25223J   26192.20978965  .00026368  00000+0  78850-3 0  9992
2 65862  53.1590  79.2673 0001430 109.5867 250.5290 15.34411184 43136
STARLINK-35469          
1 65863U 25223K   26192.29798491  .00014562  00000+0  44124-3 0  9996
2 65863  53.1586  78.4046 0001369  60.9569 299.1571 15.34403760 43151
STARLINK-35471          
1 65864U 25223L   26192.10305693  .00016723  00000+0  57516-3 0  9995
2 65864  53.1585  80.7303 0001726  76.2429 283.8764 15.30218309 43103
STARLINK-35475          
1 65865U 25223M   26192.29377027  .00018563  00000+0  55895-3 0  9998
2 65865  53.1587  78.3704 0000766  95.1580 264.9510 15.34411652 43159
STARLINK-35312          
1 65866U 25223N   26192.10888382  .00019594  00000+0  58921-3 0  9998
2 65866  53.1576  79.3540 0000897  34.1856 325.9205 15.34416089 43126
STARLINK-35456          
1 65867U 25223P   26192.24213339  .00011561  00000+0  40177-3 0  9998
2 65867  53.1581  80.1708 0001015 114.4619 245.6488 15.30206629 43125
STARLINK-35450          
1 65868U 25223Q   26192.29587985  .00020997  00000+0  63065-3 0  9999
2 65868  53.1581  78.3869 0001180  90.0868 270.0270 15.34408203 43151
STARLINK-35441          
1 65869U 25223R   26192.24757328  .00018345  00000+0  55257-3 0  9993
2 65869  53.1573  78.7932 0001068  93.1738 266.9387 15.34410043 43140
STARLINK-35433          
1 65870U 25223S   26192.10728758  .00022978  00000+0  78450-3 0  9992
2 65870  53.1585  80.7561 0000819  45.6623 314.4444 15.30243030 43110
STARLINK-35465          
1 65871U 25223T   26192.05463735  .00012794  00000+0  44337-3 0  9990
2 65871  53.1574  81.1400 0001701  61.8196 298.2976 15.30198910 43094
STARLINK-34108          
1 65872U 25223U   26192.17154469  .00012277  00000+0  42570-3 0  9998
2 65872  53.1580  80.4443 0001216  86.4066 273.7074 15.30217418 43116
STARLINK-35423          
1 65873U 25223V   26192.21599691  .00022101  00000+0  66251-3 0  9993
2 65873  53.1603  78.5979 0001564  59.5316 300.5841 15.34437789 43143
STARLINK-35425          
1 65874U 25223W   26192.12783316  .00014950  00000+0  45286-3 0  9991
2 65874  53.1593  79.4645 0001378  91.0980 269.0181 15.34390381 43123
STARLINK-34688          
1 65875U 25223X   26192.16981097  .00014415  00000+0  43680-3 0  9994
2 65875  53.1592  79.0171 0001168  96.3329 263.7807 15.34410389 43133
STARLINK-34438          
1 65876U 25223Y   26192.21400573  .00012720  00000+0  38715-3 0  9996
2 65876  53.1580  79.2840 0001834 138.1337 221.9806 15.34384155 43136
STARLINK-35462          
1 65877U 25223Z   26192.16310144  .00019815  00000+0  67916-3 0  9992
2 65877  53.1581  80.3879 0001273  83.5068 276.6078 15.30208950 43114
STARLINK-35453          
1 65878U 25223AA  26192.22653404  .00018640  00000+0  56117-3 0  9995
2 65878  53.1581  78.6589 0001187  96.4032 263.7105 15.34414442 43141
STARLINK-35418          
1 65879U 25223AB  26192.30639939  .00015892  00000+0  48039-3 0  9992
2 65879  53.1581  78.4453 0001719  52.5730 307.5428 15.34405138 43157
STARLINK-35445          
1 65880U 25223AC  26192.17191941  .00016503  00000+0  49829-3 0  9993
2 65880  53.1588  79.0276 0001444  95.1844 264.9324 15.34413234 43135
STARLINK-35464          
1 65881U 25223AD  26192.15508566  .00022607  00000+0  67804-3 0  9992
2 65881  53.1586  78.9232 0001563  83.5367 276.5813 15.34406767 43132
STARLINK-35270          
1 65882U 25224A   26192.31177824  .00014291  00000+0  43379-3 0  9992
2 65882  53.1559 154.8605 0001562  90.4365 269.6816 15.34364259 43781
STARLINK-35367          
1 65883U 25224B   26192.36426338  .00010805  00000+0  33044-3 0  9990
2 65883  53.1693 154.4669 0000072  17.7425 342.3581 15.34398728 43798
