OBJECT_NAME,OBJECT_ID,EPOCH,MEAN_MOTION,ECCENTRICITY,INCLINATION,RA_OF_ASC_NODE,ARG_OF_PERICENTER,MEAN_ANOMALY,EPHEMERIS_TYPE,CLASSIFICATION_TYPE,NORAD_CAT_ID,ELEMENT_SET_NO,REV_AT_EPOCH,BSTAR,MEAN_MOTION_DOT,MEAN_MOTION_DDOT
STARLINK-35208,2025-223A,2026-07-11T08:27:44.869824,15.34400158,.0002026,53.1582,78.0393,41.1041,319.0114,0,U,65854,999,4316,.4012E-3,.13203E-3,0
STARLINK-35200,2025-223B,2026-07-11T03:00:19.408032,15.30208016,.0001333,53.1574,80.8706,98.3182,261.7970,0,U,65855,999,4310,.58224E-3,.16929E-3,0
STARLINK-35459,2025-223C,2026-07-11T06:47:52.704096,15.34401577,.00016,53.1583,78.3053,143.0602,217.0511,0,U,65856,999,4315,.40055E-3,.13181E-3,0
STARLINK-35489,2025-223D,2026-07-11T07:24:14.493312,15.34379507,.0001162,53.1574,78.4651,104.5874,255.5258,0,U,65857,999,4315,.33306E-3,.10886E-3,0
STARLINK-35199,2025-223E,2026-07-11T05:47:09.292992,15.30203089,.0001397,53.1568,80.1697,111.8561,248.2588,0,U,65858,999,4312,.32914E-3,.9402E-4,0
STARLINK-35408,2025-223F,2026-07-11T07:33:19.890720,15.34369679,.0001326,53.1577,78.5086,66.3316,293.7825,0,U,65859,999,4315,.40297E-3,.1325E-3,0
STARLINK-35303,2025-223G,2026-07-11T07:27:16.177824,15.34368569,.0001552,53.1581,78.4792,64.3383,295.7780,0,U,65860,999,4315,.23213E-3,.7467E-4,0
STARLINK-35258,2025-223H,2026-07-11T03:49:23.208096,15.34408044,.0001493,53.1587,78.9608,55.0871,305.0271,0,U,65861,999,4313,.70939E-3,.23673E-3,0
STARLINK-35386,2025-223J,2026-07-11T05:02:05.825760,15.34411184,.000143,53.1590,79.2673,109.5867,250.5290,0,U,65862,999,4313,.7885E-3,.26368E-3,0
STARLINK-35469,2025-223K,2026-07-11T07:09:05.896224,15.34403760,.0001369,53.1586,78.4046,60.9569,299.1571,0,U,65863,999,4315,.44124E-3,.14562E-3,0
STARLINK-35471,2025-223L,2026-07-11T02:28:24.118752,15.30218309,.0001726,53.1585,80.7303,76.2429,283.8764,0,U,65864,999,4310,.57516E-3,.16723E-3,0
STARLINK-35475,2025-223M,2026-07-11T07:03:01.751328,15.34411652,.0000766,53.1587,78.3704,95.1580,264.9510,0,U,65865,999,4315,.55895E-3,.18563E-3,0
STARLINK-35312,2025-223N,2026-07-11T02:36:47.562048,15.34416089,.0000897,53.1576,79.3540,34.1856,325.9205,0,U,65866,999,4312,.58921E-3,.19594E-3,0
STARLINK-35456,2025-223P,2026-07-11T05:48:40.324896,15.30206629,.0001015,53.1581,80.1708,114.4619,245.6488,0,U,65867,999,4312,.40177E-3,.11561E-3,0
STARLINK-35450,2025-223Q,2026-07-11T07:06:04.019040,15.34408203,.000118,53.1581,78.3869,90.0868,270.0270,0,U,65868,999,4315,.63065E-3,.20997E-3,0
STARLINK-35441,2025-223R,2026-07-11T05:56:30.331392,15.34410043,.0001068,53.1573,78.7932,93.1738,266.9387,0,U,65869,999,4314,.55257E-3,.18345E-3,0
STARLINK-35433,2025-223S,2026-07-11T02:34:29.646912,15.30243030,.0000819,53.1585,80.7561,45.6623,314.4444,0,U,65870,999,4311,.7845E-3,.22978E-3,0
STARLINK-35465,2025-223T,2026-07-11T01:18:40.667040,15.30198910,.0001701,53.1574,81.1400,61.8196,298.2976,0,U,65871,999,4309,.44337E-3,.12794E-3,0
STARLINK-34108,2025-223U,2026-07-11T04:07:01.461216,15.30217418,.0001216,53.1580,80.4443,86.4066,273.7074,0,U,65872,999,4311,.4257E-3,.12277E-3,0
STARLINK-35423,2025-223V,2026-07-11T05:11:02.133024,15.34437789,.0001564,53.1603,78.5979,59.5316,300.5841,0,U,65873,999,4314,.66251E-3,.22101E-3,0
STARLINK-35425,2025-223W,2026-07-11T03:04:04.785024,15.34390381,.0001378,53.1593,79.4645,91.0980,269.0181,0,U,65874,999,4312,.45286E-3,.1495E-3,0
STARLINK-34688,2025-223X,2026-07-11T04:04:31.667808,15.34410389,.0001168,53.1592,79.0171,96.3329,263.7807,0,U,65875,999,4313,.4368E-3,.14415E-3,0
STARLINK-34438,2025-223Y,2026-07-11T05:08:10.095072,15.34384155,.0001834,53.1580,79.2840,138.1337,221.9806,0,U,65876,999,4313,.38715E-3,.1272E-3,0
STARLINK-35462,2025-223Z,2026-07-11T03:54:51.964416,15.30208950,.0001273,53.1581,80.3879,83.5068,276.6078,0,U,65877,999,4311,.67916E-3,.19815E-3,0
STARLINK-35453,2025-223AA,2026-07-11T05:26:12.541056,15.34414442,.0001187,53.1581,78.6589,96.4032,263.7105,0,U,65878,999,4314,.56117E-3,.1864E-3,0
STARLINK-35418,2025-223AB,2026-07-11T07:21:12.907296,15.34405138,.0001719,53.1581,78.4453,52.5730,307.5428,0,U,65879,999,4315,.48039E-3,.15892E-3,0
STARLINK-35445,2025-223AC,2026-07-11T04:07:33.837024,15.34413234,.0001444,53.1588,79.0276,95.1844,264.9324,0,U,65880,999,4313,.49829E-3,.16503E-3,0
STARLINK-35464,2025-223AD,2026-07-11T03:43:19.401024,15.34406767,.0001563,53.1586,78.9232,83.5367,276.5813,0,U,65881,999,4313,.67804E-3,.22607E-3,0
STARLINK-35270,2025-224A,2026-07-11T07:28:57.639936,15.34364259,.0001562,53.1559,154.8605,90.4365,269.6816,0,U,65882,999,4378,.43379E-3,.14291E-3,0
STARLINK-35367,2025-224B,2026-07-11T08:44:32.356032,15.34398728,.0000072,53.1693,154.4669,17.7425,342.3581,0,U,65883,999,4379,.33044E-3,.10805E-3,0
